{
  "norad_id": 39017,
  "name": "ZHONGXING-12",
  "history": [
    {
      "epoch": "2026-03-27T03:15:48.336768Z",
      "apogee_km": 35800.9165480529,
      "perigee_km": 35772.34570117166,
      "latitude_deg": -0.004743696369226327,
      "longitude_deg": 87.48025517116929,
      "height_km": 35774.84742899296,
      "semi_major_axis_km": 42164.76812461228,
      "eccentricity": 0.0003388,
      "inclination_deg": 0.0294,
      "raan_deg": 108.7021,
      "arg_perigee_deg": 250.5025,
      "mean_anomaly_deg": 321.8044,
      "mean_motion_rev_day": 1.00271656
    },
    {
      "epoch": "2026-03-30T16:59:38.522400Z",
      "apogee_km": 35801.11073765278,
      "perigee_km": 35772.4301676035,
      "latitude_deg": 0.026329537750859184,
      "longitude_deg": 87.51037470071091,
      "height_km": 35800.09106140115,
      "semi_major_axis_km": 42164.90745262814,
      "eccentricity": 0.0003401,
      "inclination_deg": 0.0413,
      "raan_deg": 98.9534,
      "arg_perigee_deg": 267.914,
      "mean_anomaly_deg": 163.6177,
      "mean_motion_rev_day": 1.00271159
    },
    {
      "epoch": "2026-03-30T21:57:53.623008Z",
      "apogee_km": 35801.019195399705,
      "perigee_km": 35772.6775788219,
      "latitude_deg": 0.03960019781966422,
      "longitude_deg": 87.46188475049776,
      "height_km": 35792.69978724463,
      "semi_major_axis_km": 42164.985387110806,
      "eccentricity": 0.00033608,
      "inclination_deg": 0.0395,
      "raan_deg": 104.5939,
      "arg_perigee_deg": 257.1842,
      "mean_anomaly_deg": 243.4717,
      "mean_motion_rev_day": 1.00270881
    },
    {
      "epoch": "2026-03-31T20:12:45.273024Z",
      "apogee_km": 35801.72161523397,
      "perigee_km": 35774.17029663056,
      "latitude_deg": 0.011109189507756006,
      "longitude_deg": 87.46864731522038,
      "height_km": 35799.250580096195,
      "semi_major_axis_km": 42166.08295593227,
      "eccentricity": 0.0003267,
      "inclination_deg": 0.0124,
      "raan_deg": 209.9636,
      "arg_perigee_deg": 158.4964,
      "mean_anomaly_deg": 211.4131,
      "mean_motion_rev_day": 1.00266966
    },
    {
      "epoch": "2026-04-01T20:39:38.689344Z",
      "apogee_km": 35800.69061103984,
      "perigee_km": 35772.51613152376,
      "latitude_deg": 0.012328340076082543,
      "longitude_deg": 87.46385681367717,
      "height_km": 35796.87556444353,
      "semi_major_axis_km": 42164.740371281805,
      "eccentricity": 0.0003341,
      "inclination_deg": 0.0065,
      "raan_deg": 211.5461,
      "arg_perigee_deg": 155.6237,
      "mean_anomaly_deg": 220.4336,
      "mean_motion_rev_day": 1.00271755
    },
    {
      "epoch": "2026-04-02T20:07:48.186624Z",
      "apogee_km": 35801.43591091656,
      "perigee_km": 35772.39262360367,
      "latitude_deg": 0.014074105131998825,
      "longitude_deg": 87.46088593747751,
      "height_km": 35798.92255774383,
      "semi_major_axis_km": 42165.05126726012,
      "eccentricity": 0.0003444,
      "inclination_deg": 0.0035,
      "raan_deg": 167.0884,
      "arg_perigee_deg": 202.5368,
      "mean_anomaly_deg": 210.977,
      "mean_motion_rev_day": 1.00270646
    },
    {
      "epoch": "2026-04-02T21:50:30.994944Z",
      "apogee_km": 35801.53924704508,
      "perigee_km": 35772.26237469148,
      "latitude_deg": 0.01493147077656387,
      "longitude_deg": 87.44853914793342,
      "height_km": 35794.913913613185,
      "semi_major_axis_km": 42165.037810868285,
      "eccentricity": 0.00034717,
      "inclination_deg": 0.0043,
      "raan_deg": 141.4197,
      "arg_perigee_deg": 230.3217,
      "mean_anomaly_deg": 234.6095,
      "mean_motion_rev_day": 1.00270694
    },
    {
      "epoch": "2026-04-03T20:25:52.524768Z",
      "apogee_km": 35801.616550708524,
      "perigee_km": 35772.303375299845,
      "latitude_deg": 0.023330941920160473,
      "longitude_deg": 87.45309685035343,
      "height_km": 35798.772697569126,
      "semi_major_axis_km": 42165.09696300419,
      "eccentricity": 0.0003476,
      "inclination_deg": 0.0174,
      "raan_deg": 177.2905,
      "arg_perigee_deg": 195.5893,
      "mean_anomaly_deg": 213.2349,
      "mean_motion_rev_day": 1.00270483
    },
    {
      "epoch": "2026-04-04T01:13:23.460672Z",
      "apogee_km": 35801.52093746381,
      "perigee_km": 35772.43206896022,
      "latitude_deg": 0.04024580948825459,
      "longitude_deg": 87.43562503294824,
      "height_km": 35782.40814112443,
      "semi_major_axis_km": 42165.113503212015,
      "eccentricity": 0.00034494,
      "inclination_deg": 0.0215,
      "raan_deg": 176.0721,
      "arg_perigee_deg": 195.9819,
      "mean_anomaly_deg": 286.1356,
      "mean_motion_rev_day": 1.00270424
    },
    {
      "epoch": "2026-04-04T21:25:38.726112Z",
      "apogee_km": 35801.90439601388,
      "perigee_km": 35772.61546799698,
      "latitude_deg": 0.017705957677709893,
      "longitude_deg": 87.44898362528221,
      "height_km": 35796.60018989628,
      "semi_major_axis_km": 42165.39693200543,
      "eccentricity": 0.00034731,
      "inclination_deg": 0.0126,
      "raan_deg": 141.6621,
      "arg_perigee_deg": 232.4187,
      "mean_anomaly_deg": 228.0087,
      "mean_motion_rev_day": 1.00269413
    },
    {
      "epoch": "2026-04-05T21:52:21.758016Z",
      "apogee_km": 35800.69917578971,
      "perigee_km": 35771.69011561747,
      "latitude_deg": 0.024773154610516147,
      "longitude_deg": 87.45570660976736,
      "height_km": 35793.28907021512,
      "semi_major_axis_km": 42164.3316457036,
      "eccentricity": 0.000344,
      "inclination_deg": 0.0137,
      "raan_deg": 166.4586,
      "arg_perigee_deg": 204.7226,
      "mean_anomaly_deg": 238.6038,
      "mean_motion_rev_day": 1.00273213
    },
    {
      "epoch": "2026-04-06T02:57:21.553632Z",
      "apogee_km": 35800.6985607136,
      "perigee_km": 35771.73502280696,
      "latitude_deg": 0.018447155870315406,
      "longitude_deg": 87.46198650264512,
      "height_km": 35775.495357581436,
      "semi_major_axis_km": 42164.35379176028,
      "eccentricity": 0.00034346,
      "inclination_deg": 0.0133,
      "raan_deg": 166.078,
      "arg_perigee_deg": 205.5229,
      "mean_anomaly_deg": 314.6429,
      "mean_motion_rev_day": 1.00273134
    }
  ]
}